[{"OBJECT_NAME":"GEESAT-4 06","OBJECT_ID":"2025-170F","EPOCH":"2026-03-09T22:38:42.354528","MEAN_MOTION":14.83615146,"ECCENTRICITY":0.00188872,"INCLINATION":49.9829,"RA_OF_ASC_NODE":274.2895,"ARG_OF_PERICENTER":19.9102,"MEAN_ANOMALY":340.2569,"EPHEMERIS_TYPE":0,"CLASSIFICATION_TYPE":"U","NORAD_CAT_ID":65124,"ELEMENT_SET_NO":999,"REV_AT_EPOCH":3169,"BSTAR":0.00034907965,"MEAN_MOTION_DOT":2.689e-5,"MEAN_MOTION_DDOT":0},{"OBJECT_NAME":"ATLAS H R\/B","OBJECT_ID":"1987-043B","EPOCH":"2026-03-09T13:01:50.955168","MEAN_MOTION":13.51112774,"ECCENTRICITY":0.07077502,"INCLINATION":63.3177,"RA_OF_ASC_NODE":133.9687,"ARG_OF_PERICENTER":116.0924,"MEAN_ANOMALY":251.4684,"EPHEMERIS_TYPE":0,"CLASSIFICATION_TYPE":"U","NORAD_CAT_ID":17998,"ELEMENT_SET_NO":999,"REV_AT_EPOCH":33779,"BSTAR":0.00041214221,"MEAN_MOTION_DOT":1.232e-5,"MEAN_MOTION_DDOT":0}]
